{"type": "FeatureCollection", "features": [ {"type": "Feature", "properties": {"norad_id": 31915, "name": "FENGYUN 1C DEB", "group": "fengyun-1c-debris", "lat": -20.575944959639834, "lon": 20.960648246464537, "alt_km": 865.5356290527334, "timestamp": "2025-12-26T06:43:29.796642+00:00", "meta": {"OBJECT_NAME": "FENGYUN 1C DEB", "OBJECT_ID": "1999-025CLS", "EPOCH": "2025-12-25T00:18:12.663648", "MEAN_MOTION": 14.16249035, "ECCENTRICITY": 0.01012958, "INCLINATION": 98.6305, "RA_OF_ASC_NODE": 16.4635, "ARG_OF_PERICENTER": 234.6009, "MEAN_ANOMALY": 124.5672, "EPHEMERIS_TYPE": 0, "CLASSIFICATION_TYPE": "U", "NORAD_CAT_ID": 31915, "ELEMENT_SET_NO": 999, "REV_AT_EPOCH": 64281, "BSTAR": 0.00072723702, "MEAN_MOTION_DOT": 1.472e-05, "MEAN_MOTION_DDOT": 0}, "tle": {"line1": "1 31915U 99025CLS 25359.01264657  .00001472  00000+0  72724-3 0  9997", "line2": "2 31915  98.6305  16.4635 0101295 234.6009 124.5672 14.16249035642812"}}, "geometry": {"type": "Point", "coordinates": [20.960648246464537, -20.575944959639834]}}, {"type": "Feature", "properties": {"norad_id": 31916, "name": "FENGYUN 1C DEB", "group": "fengyun-1c-debris", "lat": -71.60793169600134, "lon": -123.1356955967559, "alt_km": 890.3841087562205, "timestamp": "2025-12-26T06:43:29.796653+00:00", "meta": {"OBJECT_NAME": "FENGYUN 1C DEB", "OBJECT_ID": "1999-025CLT", "EPOCH": "2025-12-20T12:05:47.200128", "MEAN_MOTION": 14.32566487, "ECCENTRICITY": 0.01459244, "INCLINATION": 99.3299, "RA_OF_ASC_NODE": 80.2819, "ARG_OF_PERICENTER": 74.2025, "MEAN_ANOMALY": 287.5191, "EPHEMERIS_TYPE": 0, "CLASSIFICATION_TYPE": "U", "NORAD_CAT_ID": 31916, "ELEMENT_SET_NO": 999, "REV_AT_EPOCH": 64638, "BSTAR": 0.00080279235, "MEAN_MOTION_DOT": 2.399e-05, "MEAN_MOTION_DDOT": 0}, "tle": {"line1": "1 31916U 99025CLT 25354.50401852  .00002399  00000+0  80279-3 0  9990", "line2": "2 31916  99.3299  80.2819 0145924  74.2025 287.5191 14.32566487646382"}}, "geometry": {"type": "Point", "coordinates": [-123.1356955967559, -71.60793169600134]}}, {"type": "Feature", "properties": {"norad_id": 31917, "name": "FENGYUN 1C DEB", "group": "fengyun-1c-debris", "lat": 75.30265664638496, "lon": -41.40747174098657, "alt_km": 893.3663405078505, "timestamp": "2025-12-26T06:43:29.796663+00:00", "meta": {"OBJECT_NAME": "FENGYUN 1C DEB", "OBJECT_ID": "1999-025CLU", "EPOCH": "2025-12-24T18:26:23.436384", "MEAN_MOTION": 14.37671565, "ECCENTRICITY": 0.01888668, "INCLINATION": 98.3613, "RA_OF_ASC_NODE": 351.2261, "ARG_OF_PERICENTER": 257.1212, "MEAN_ANOMALY": 280.5832, "EPHEMERIS_TYPE": 0, "CLASSIFICATION_TYPE": "U", "NORAD_CAT_ID": 31917, "ELEMENT_SET_NO": 999, "REV_AT_EPOCH": 96594, "BSTAR": 0.00052248643, "MEAN_MOTION_DOT": 1.879e-05, "MEAN_MOTION_DDOT": 0}, "tle": {"line1": "1 31917U 99025CLU 25358.76832681  .00001879  00000+0  52249-3 0  9999", "line2": "2 31917  98.3613 351.2261 0188866 257.1212 280.5832 14.37671565965946"}}, "geometry": {"type": "Point", "coordinates": [-41.40747174098657, 75.30265664638496]}}, {"type": "Feature", "properties": {"norad_id": 31919, "name": "FENGYUN 1C DEB", "group": "fengyun-1c-debris", "lat": -54.71309105146698, "lon": 156.7698512805858, "alt_km": 800.2297297784544, "timestamp": "2025-12-26T06:43:29.796673+00:00", "meta": {"OBJECT_NAME": "FENGYUN 1C DEB", "OBJECT_ID": "1999-025CLW", "EPOCH": "2025-12-24T04:18:52.922880", "MEAN_MOTION": 14.45795434, "ECCENTRICITY": 0.0102601, "INCLINATION": 99.1027, "RA_OF_ASC_NODE": 141.4235, "ARG_OF_PERICENTER": 172.641, "MEAN_ANOMALY": 4.6485, "EPHEMERIS_TYPE": 0, "CLASSIFICATION_TYPE": "U", "NORAD_CAT_ID": 31919, "ELEMENT_SET_NO": 999, "REV_AT_EPOCH": 97246, "BSTAR": 0.00051849773, "MEAN_MOTION_DOT": 1.909e-05, "MEAN_MOTION_DDOT": 0}, "tle": {"line1": "1 31919U 99025CLW 25358.17977920  .00001909  00000+0  51850-3 0  9993", "line2": "2 31919  99.1027 141.4235 0102601 172.6410   4.6485 14.45795434972465"}}, "geometry": {"type": "Point", "coordinates": [156.7698512805858, -54.71309105146698]}}, {"type": "Feature", "properties": {"norad_id": 31921, "name": "FENGYUN 1C DEB", "group": "fengyun-1c-debris", "lat": 30.737569464803776, "lon": 77.98608436703566, "alt_km": 952.1601558377724, "timestamp": "2025-12-26T06:43:29.796683+00:00", "meta": {"OBJECT_NAME": "FENGYUN 1C DEB", "OBJECT_ID": "1999-025CLY", "EPOCH": "2025-12-14T11:07:39.123264", "MEAN_MOTION": 13.75272567, "ECCENTRICITY": 0.02016687, "INCLINATION": 99.3382, "RA_OF_ASC_NODE": 240.7973, "ARG_OF_PERICENTER": 260.4861, "MEAN_ANOMALY": 97.3447, "EPHEMERIS_TYPE": 0, "CLASSIFICATION_TYPE": "U", "NORAD_CAT_ID": 31921, "ELEMENT_SET_NO": 999, "REV_AT_EPOCH": 92330, "BSTAR": 0.001077077, "MEAN_MOTION_DOT": 1.153e-05, "MEAN_MOTION_DDOT": 0}, "tle": {"line1": "1 31921U 99025CLY 25348.46364726  .00001153  00000+0  10771-2 0  9998", "line2": "2 31921  99.3382 240.7973 0201668 260.4861  97.3447 13.75272567923300"}}, "geometry": {"type": "Point", "coordinates": [77.98608436703566, 30.737569464803776]}}, {"type": "Feature", "properties": {"norad_id": 31922, "name": "FENGYUN 1C DEB", "group": "fengyun-1c-debris", "lat": -34.897296946691576, "lon": 164.70813398320584, "alt_km": 1028.2453527516727, "timestamp": "2025-12-26T06:43:29.796694+00:00", "meta": {"OBJECT_NAME": "FENGYUN 1C DEB", "OBJECT_ID": "1999-025CLZ", "EPOCH": "2025-12-25T23:00:57.071232", "MEAN_MOTION": 13.86657505, "ECCENTRICITY": 0.01613858, "INCLINATION": 98.8062, "RA_OF_ASC_NODE": 350.6131, "ARG_OF_PERICENTER": 350.583, "MEAN_ANOMALY": 63.4179, "EPHEMERIS_TYPE": 0, "CLASSIFICATION_TYPE": "U", "NORAD_CAT_ID": 31922, "ELEMENT_SET_NO": 999, "REV_AT_EPOCH": 93200, "BSTAR": 0.0016568856, "MEAN_MOTION_DOT": 2.095e-05, "MEAN_MOTION_DDOT": 0}, "tle": {"line1": "1 31922U 99025CLZ 25359.95899388  .00002095  00000+0  16569-2 0  9999", "line2": "2 31922  98.8062 350.6131 0161385 350.5830  63.4179 13.86657505932009"}}, "geometry": {"type": "Point", "coordinates": [164.70813398320584, -34.897296946691576]}}, {"type": "Feature", "properties": {"norad_id": 31923, "name": "FENGYUN 1C DEB", "group": "fengyun-1c-debris", "lat": -57.57282540302272, "lon": 105.58322901327101, "alt_km": 872.0741272800205, "timestamp": "2025-12-26T06:43:29.796704+00:00", "meta": {"OBJECT_NAME": "FENGYUN 1C DEB", "OBJECT_ID": "1999-025CMA", "EPOCH": "2025-12-20T05:40:47.009280", "MEAN_MOTION": 13.54908967, "ECCENTRICITY": 0.0300717, "INCLINATION": 98.4358, "RA_OF_ASC_NODE": 86.9011, "ARG_OF_PERICENTER": 284.1241, "MEAN_ANOMALY": 72.6659, "EPHEMERIS_TYPE": 0, "CLASSIFICATION_TYPE": "U", "NORAD_CAT_ID": 31923, "ELEMENT_SET_NO": 999, "REV_AT_EPOCH": 63736, "BSTAR": 0.0012343, "MEAN_MOTION_DOT": 1.096e-05, "MEAN_MOTION_DDOT": 0}, "tle": {"line1": "1 31923U 99025CMA 25354.23665520  .00001096  00000+0  12343-2 0  9991", "line2": "2 31923  98.4358  86.9011 0300717 284.1241  72.6659 13.54908967637364"}}, "geometry": {"type": "Point", "coordinates": [105.58322901327101, -57.57282540302272]}}, {"type": "Feature", "properties": {"norad_id": 31924, "name": "FENGYUN 1C DEB", "group": "fengyun-1c-debris", "lat": -73.43603283650918, "lon": -174.39810637870514, "alt_km": 1172.5397494003282, "timestamp": "2025-12-26T06:43:29.796715+00:00", "meta": {"OBJECT_NAME": "FENGYUN 1C DEB", "OBJECT_ID": "1999-025CMB", "EPOCH": "2025-12-24T09:19:26.838048", "MEAN_MOTION": 13.63938046, "ECCENTRICITY": 0.02723137, "INCLINATION": 98.401, "RA_OF_ASC_NODE": 154.1733, "ARG_OF_PERICENTER": 65.9897, "MEAN_ANOMALY": 296.9499, "EPHEMERIS_TYPE": 0, "CLASSIFICATION_TYPE": "U", "NORAD_CAT_ID": 31924, "ELEMENT_SET_NO": 999, "REV_AT_EPOCH": 91626, "BSTAR": 0.0012460222, "MEAN_MOTION_DOT": 1.24e-05, "MEAN_MOTION_DDOT": 0}, "tle": {"line1": "1 31924U 99025CMB 25358.38850507  .00001240  00000+0  12460-2 0  9994", "line2": "2 31924  98.4010 154.1733 0272313  65.9897 296.9499 13.63938046916264"}}, "geometry": {"type": "Point", "coordinates": [-174.39810637870514, -73.43603283650918]}}, {"type": "Feature", "properties": {"norad_id": 31926, "name": "FENGYUN 1C DEB", "group": "fengyun-1c-debris", "lat": 13.287926876447639, "lon": 93.7895853829104, "alt_km": 816.575122371848, "timestamp": "2025-12-26T06:43:29.796725+00:00", "meta": {"OBJECT_NAME": "FENGYUN 1C DEB", "OBJECT_ID": "1999-025CMD", "EPOCH": "2025-12-25T17:14:09.122496", "MEAN_MOTION": 14.30877947, "ECCENTRICITY": 0.00402358, "INCLINATION": 98.9563, "RA_OF_ASC_NODE": 95.3452, "ARG_OF_PERICENTER": 216.9967, "MEAN_ANOMALY": 142.8439, "EPHEMERIS_TYPE": 0, "CLASSIFICATION_TYPE": "U", "NORAD_CAT_ID": 31926, "ELEMENT_SET_NO": 999, "REV_AT_EPOCH": 95413, "BSTAR": 0.0025288246, "MEAN_MOTION_DOT": 6.655e-05, "MEAN_MOTION_DDOT": 0}, "tle": {"line1": "1 31926U 99025CMD 25359.71816114  .00006655  00000+0  25288-2 0  9997", "line2": "2 31926  98.9563  95.3452 0040235 216.9967 142.8439 14.30877947954138"}}, "geometry": {"type": "Point", "coordinates": [93.7895853829104, 13.287926876447639]}}, {"type": "Feature", "properties": {"norad_id": 31929, "name": "FENGYUN 1C DEB", "group": "fengyun-1c-debris", "lat": -48.537707858542, "lon": 139.9638576238117, "alt_km": 759.1946787538063, "timestamp": "2025-12-26T06:43:29.796735+00:00", "meta": {"OBJECT_NAME": "FENGYUN 1C DEB", "OBJECT_ID": "1999-025CME", "EPOCH": "2025-12-24T04:44:53.661984", "MEAN_MOTION": 14.34964065, "ECCENTRICITY": 0.00737177, "INCLINATION": 98.7918, "RA_OF_ASC_NODE": 127.7563, "ARG_OF_PERICENTER": 21.677, "MEAN_ANOMALY": 338.7508, "EPHEMERIS_TYPE": 0, "CLASSIFICATION_TYPE": "U", "NORAD_CAT_ID": 31929, "ELEMENT_SET_NO": 999, "REV_AT_EPOCH": 70810, "BSTAR": 0.00040479612, "MEAN_MOTION_DOT": 1.142e-05, "MEAN_MOTION_DDOT": 0}, "tle": {"line1": "1 31929U 99025CME 25358.19784331  .00001142  00000+0  40480-3 0  9994", "line2": "2 31929  98.7918 127.7563 0073717  21.6770 338.7508 14.34964065708109"}}, "geometry": {"type": "Point", "coordinates": [139.9638576238117, -48.537707858542]}}]}